SAUDISAT 2              
1 28371U 04025F   26168.85322928  .00000187  00000+0  52853-4 0  9996
2 28371  98.5507 168.8523 0023570 296.1156  63.7616 14.56684246165846
COSMOS 2407             
1 28380U 04028A   26168.86768104  .00000062  00000+0  48201-4 0  9994
2 28380  82.9607  74.3302 0037848 249.9655 181.1646 13.76334776 99972
COSMOS 2414             
1 28521U 05002A   26168.75304383  .00000050  00000+0  28557-4 0  9996
2 28521  82.9498  43.2186 0039449 329.6441  30.2438 13.87926561 83898
INMARSAT 4-F1           
1 28628U 05009A   26168.78955420  .00000025  00000+0  00000+0 0  9998
2 28628   5.1694  42.7638 0002558  44.0932 281.5313  1.00270902 77676
SJ-7                    
1 28737U 05024A   26168.61674566  .00006526  00000+0  29187-3 0  9990
2 28737  97.7279 198.7320 0016305  36.6891 323.5457 15.21549194148090
CUBESAT XI-V            
1 28895U 05043F   26168.87823089  .00001113  00000+0  18294-3 0  9994
2 28895  98.2987 324.5146 0013699 198.4273 161.6440 14.72633171101856
HINODE (SOLAR-B)        
1 29479U 06041A   26168.66229436  .00000513  00000+0  96583-4 0  9996
2 29479  98.0547 184.8078 0016001 288.1134  71.8328 14.68623570 54940
SHIJIAN-6 02B (SJ-6 02B)
1 29506U 06046B   26168.94615858  .00000922  00000+0  76062-4 0  9994
2 29506  97.7153 198.0002 0015405  58.2945 301.9778 15.01378369 70852
DMSP 5D-3 F17 (USA 191) 
1 29522U 06050A   26168.94752060 -.00000021  00000+0  11264-4 0  9998
2 29522  98.7378 175.5021 0011147  57.3902 302.8346 14.14993062 12531
LAPAN-TUBSAT            
1 29709U 07001A   26168.99506922 -.00000283  00000+0 -25771-4 0  9990
2 29709  98.1337 168.2371 0011932 176.7595 183.3699 14.85948421 51274
HAIYANG-1B              
1 31113U 07010A   26168.91392912  .00000072  00000+0  43338-4 0  9999
2 31113  98.3495 150.7309 0013061 194.0963 165.9858 14.31027083   749
COSMO-SKYMED 2          
1 32376U 07059A   26168.97117279  .00000299  00000+0  44108-4 0  9998
2 32376  97.8886 352.5577 0001345  87.9513 272.1854 14.82155580  2122
CARTOSAT-2A             
1 32783U 08021A   26168.92589128  .00000300  00000+0  47124-4 0  9995
2 32783  97.7630 217.6092 0013218 106.5246 253.7419 14.79239310978917
CUTE-1.7+APD II (CO-65) 
1 32785U 08021C   26168.91168141  .00004224  00000+0  26784-3 0  9991
2 32785  97.8273 150.3452 0009672  36.6231 323.5656 15.09456805985306
SEEDS II (CO-66)        
1 32791U 08021J   26168.52727106  .00014659  00000+0  46558-3 0  9991
2 32791  97.7515 166.4411 0001013   2.1401 357.9844 15.32761121987344
YUBILEINY (RS30)        
1 32953U 08025A   26168.90324285 -.00000007  00000+0 -11818-3 0  9993
2 32953  82.5037 354.9945 0018819 312.2470  47.7013 12.43179370819786
FENGYUN 3A              
1 32958U 08026A   26168.82264941  .00000055  00000+0  46601-4 0  9992
2 32958  98.6883 109.6439 0009615 121.9890 238.2222 14.19571285935498
HUANJING 1A (HJ-1A)     
1 33320U 08041A   26168.97545664  .00000823  00000+0  10475-3 0  9995
2 33320  97.6677 154.7831 0019998 132.3724 227.9188 14.83986592958523
HUANJING 1B (HJ-1B)     
1 33321U 08041B   26168.94488485  .00000969  00000+0  12333-3 0  9996
2 33321  97.6514 157.9234 0036127 178.3753 181.7585 14.83319529958529
SHIJIAN-6 03A (SJ-6 03A)
1 33408U 08053A   26168.90621444  .00004147  00000+0  21224-3 0  9996
2 33408  97.8402 202.2518 0011591  17.9497 342.2142 15.17170368963076
SHIJIAN-6 03B (SJ-6 03B)
1 33409U 08053B   26168.96454584  .00000514  00000+0  41418-4 0  9994
2 33409  97.8567 188.8691 0020758  42.5835 317.6995 15.04308083962866
